GLOBALSTAR M035         
1 25851U 99037A   25084.88764948 -.00000053  00000+0  38555-3 0  9999
2 25851  51.9929 240.7317 0013771 202.9071 315.3553 11.04537122 87053
GLOBALSTAR M032         
1 25852U 99037B   25084.90386446 -.00000056  00000+0  33210-3 0  9992
2 25852  51.9947  71.6339 0011718  27.0263 333.1145 11.19063246125467
GLOBALSTAR M051         
1 25853U 99037C   25084.83017276 -.00000061  00000+0  27186-3 0  9998
2 25853  51.9777 241.9814 0001544  89.4135 270.6853 11.42205313122866
GLOBALSTAR M048         
1 25872U 99041A   25084.65397729 -.00000070  00000+0 -41507-5 0  9994
2 25872  51.9356 174.2111 0013078  43.1159 111.0864 11.33855506115504
GLOBALSTAR M026         
1 25873U 99041B   25084.97858409 -.00000036  00000+0  10264-2 0  9991
2 25873  52.0063 359.3650 0001912 110.8481 332.1265 11.06832932139279
GLOBALSTAR M043         
1 25874U 99041C   25084.90770347 -.00000032  00000+0  10708-2 0  9998
2 25874  51.9390 277.9370 0013760 167.1294 339.4661 11.25693006113490
GLOBALSTAR M028         
1 25875U 99041D   25084.95173264 -.00000074  00000+0  17008-3 0  9996
2 25875  51.9617  81.2554 0063085 250.7202 108.6827 12.50580045179765
